[{"OBJECT_NAME":"STARLINK-5797","OBJECT_ID":"2023-028AV","EPOCH":"2026-03-09T18:03:55.345824","MEAN_MOTION":14.98326824,"ECCENTRICITY":0.00032648,"INCLINATION":70.0015,"RA_OF_ASC_NODE":204.3748,"ARG_OF_PERICENTER":274.06,"MEAN_ANOMALY":86.0186,"EPHEMERIS_TYPE":0,"CLASSIFICATION_TYPE":"U","NORAD_CAT_ID":55784,"ELEMENT_SET_NO":999,"REV_AT_EPOCH":16703,"BSTAR":-0.00010478764,"MEAN_MOTION_DOT":-1.343e-5,"MEAN_MOTION_DDOT":0},{"OBJECT_NAME":"BREEZE-KM R\/B","OBJECT_ID":"2016-011B","EPOCH":"2026-03-09T13:46:31.765728","MEAN_MOTION":15.28220455,"ECCENTRICITY":0.0143188,"INCLINATION":98.6722,"RA_OF_ASC_NODE":284.67,"ARG_OF_PERICENTER":63.2473,"MEAN_ANOMALY":298.3333,"EPHEMERIS_TYPE":0,"CLASSIFICATION_TYPE":"U","NORAD_CAT_ID":41336,"ELEMENT_SET_NO":999,"REV_AT_EPOCH":55224,"BSTAR":0.00023628,"MEAN_MOTION_DOT":8.734e-5,"MEAN_MOTION_DDOT":0}]
